
CZ-7A R/B
1 69675U 26144B   26174.32446913  .00084894 -16321-6  12531-3 0  9990
2 69675  19.5055 324.8183 7251415 178.8563 185.1182  2.38779558    24

ELECTRON R/B
1 69647U 26142B   26175.29063789  .02155966  23425-5  80609-3 0  9993
2 69647  97.4349  73.2045 0150964 230.3317 128.4568 16.02841226   786

TJS-26A
1 69674U 26144A   26174.32980920  .00009630 -16661-6  31526-3 0  9997
2 69674  19.5157 324.7456 7314561 179.7910 181.1077  2.27958502    21

VICTUS HAZE PUMA
1 69646U 26142A   26175.32184265  .00003543  00000+0  16349-3 0  9998
2 69646  97.4482  72.8649 0021213 302.5100  57.4085 15.20697073   754
